{"generated":"2026-05-18","source":"celestrak.org · 32-group GP merge","groupsHit":30,"groupsFailed":5,"count":15457,"categories":[{"name":"stations","code":0},{"name":"military","code":1},{"name":"gnss","code":2},{"name":"weather","code":3},{"name":"earth-obs","code":4},{"name":"sar","code":5},{"name":"science","code":6},{"name":"geo","code":7},{"name":"comms","code":8},{"name":"other","code":9}],"sats":[{"n":53868,"c":8,"l1":"1 53868U 2022-114 26137.77685013 -0.00000645  00000-0 -224720-5 0  9998","l2":"2 53868  53.2157 313.8829 0001107  86.5248 273.5870 15.08835220203822","nm":"STARLINK-4789"},{"n":53869,"c":8,"l1":"1 53869U 2022-114 26137.49254183 -0.00000352  00000-0 -401737-6 0  9999","l2":"2 53869  53.2182 324.9217 0001361  87.9268 272.1880 15.08836576203645","nm":"STARLINK-4810"},{"n":53870,"c":8,"l1":"1 53870U 2022-114 26137.78053331 -0.00000751  00000-0 -291160-5 0  9994","l2":"2 53870  53.2168 313.8916 0001474  85.3181 274.7979 15.08823606203822","nm":"STARLINK-4732"},{"n":53871,"c":8,"l1":"1 53871U 2022-114 26137.81730485  0.00000949  00000-0  777310-5 0  9994","l2":"2 53871  53.2175 313.4172 0001306  89.4928 270.6214 15.08840197203831","nm":"STARLINK-4740"},{"n":53876,"c":9,"l1":"1 53876U 2022-102 26137.90325752  0.00024068  00000-0  524110-4 0  9998","l2":"2 53876  28.9921  41.7450 0002456 328.0668  31.9792 15.42876400202027","nm":"CHUANGXIN 16B (CX-16B)"},{"n":53877,"c":9,"l1":"1 53877U 2022-115 26137.80794808  0.00000212  00000-0  938720-5 0  9996","l2":"2 53877  98.5535 136.3420 0005701 127.2718 232.8987 14.32695945191162","nm":"YUNHAI-1 03"},{"n":53886,"c":8,"l1":"1 53886U 2022-119 26137.39600794 -0.00001246  00000-0 -602101-5 0  9995","l2":"2 53886  53.2218  15.9123 0001102 114.5693 245.5414 15.08844335202052","nm":"STARLINK-5028"},{"n":53887,"c":8,"l1":"1 53887U 2022-119 26137.64991690  0.00000419  00000-0  444570-5 0  9995","l2":"2 53887  53.2177  14.6569 0001623  89.1053 271.0125 15.08832549202093","nm":"STARLINK-5029"},{"n":53888,"c":8,"l1":"1 53888U 2022-119 26137.83335647  0.00424795  00000-0  255640-3 0  9994","l2":"2 53888  53.2160 355.3317 0000942  58.0496 271.5338 15.75964045  5971","nm":"STARLINK-5034"},{"n":53889,"c":8,"l1":"1 53889U 2022-119 26137.65359943  0.00002106  00000-0  150370-4 0  9993","l2":"2 53889  53.2182  14.6790 0001471  95.4210 264.6950 15.08832048202091","nm":"STARLINK-5031"},{"n":53890,"c":8,"l1":"1 53890U 2022-119 26137.81317513  0.00000090  00000-0  237110-5 0  9999","l2":"2 53890  53.2174 338.5969 0001254  94.1572 265.9564 15.08839417202616","nm":"STARLINK-5050"},{"n":53891,"c":8,"l1":"1 53891U 2022-119 26137.81257134  0.00099672  00000-0  338690-3 0  9999","l2":"2 53891  53.2157  10.0720 0001314  94.0836 266.0316 15.29676563202176","nm":"STARLINK-5041"},{"n":53892,"c":8,"l1":"1 53892U 2022-119 26137.62780153  0.00003158  00000-0  216320-4 0  9991","l2":"2 53892  53.2209  14.5236 0001035 112.2016 247.9086 15.08856521202093","nm":"STARLINK-5046"},{"n":53893,"c":8,"l1":"1 53893U 2022-119 26137.70606720 -0.00000577  00000-0 -181560-5 0  9990","l2":"2 53893  53.2185  14.2983 0001944  92.7169 267.4046 15.08831012202106","nm":"STARLINK-5052"},{"n":53894,"c":8,"l1":"1 53894U 2022-119 26137.83335647  0.00007797  00000-0  344040-4 0  9994","l2":"2 53894  53.2181  12.7141 0001479  68.1505  71.6577 15.22692509  5787","nm":"STARLINK-5043"},{"n":53895,"c":8,"l1":"1 53895U 2022-119 26137.83335647  0.00223784  00000-0  240270-3 0  9990","l2":"2 53895  53.2173   1.5015 0001267  79.6986  28.7065 15.62546949  5921","nm":"STARLINK-5032"},{"n":53896,"c":8,"l1":"1 53896U 2022-119 26137.69036939 -0.00001568  00000-0 -804630-5 0  9991","l2":"2 53896  53.2169  14.2040 0001372  83.1406 276.9742 15.08828592202105","nm":"STARLINK-5037"},{"n":53897,"c":8,"l1":"1 53897U 2022-119 26137.83335647  0.00369784  00000-0  801570-3 0  9999","l2":"2 53897  53.2315   8.2103 0001015  78.6475 216.0567 15.42489070  5878","nm":"STARLINK-5035"},{"n":53898,"c":8,"l1":"1 53898U 2022-119 26137.67931512 -0.00001346  00000-0 -665300-5 0  9995","l2":"2 53898  53.2185  14.1351 0001822  97.4608 262.6591 15.08829514202100","nm":"STARLINK-5044"},{"n":53899,"c":8,"l1":"1 53899U 2022-119 26137.83335647  0.00823019  00000-0  867830-3 0  9998","l2":"2 53899  53.2175   2.3276 0001566  86.1321 317.0174 15.61428585  5911","nm":"STARLINK-5042"},{"n":53900,"c":8,"l1":"1 53900U 2022-119 26137.67194036 -0.00001013  00000-0 -456020-5 0  9999","l2":"2 53900  53.2194  14.0865 0001346  92.8285 267.2861 15.08833776202100","nm":"STARLINK-5045"},{"n":53902,"c":8,"l1":"1 53902U 2022-119 26137.54038646  0.00000580  00000-0  545463-5 0  9997","l2":"2 53902  53.2173 324.7913 0001292  83.5082 276.6057 15.08826946202782","nm":"STARLINK-5021"},{"n":53903,"c":8,"l1":"1 53903U 2022-119 26137.68764286 -0.00000729  00000-0 -277150-5 0  9991","l2":"2 53903  53.2199  14.1828 0001450  88.4970 271.6188 15.08833010202108","nm":"STARLINK-5022"},{"n":53904,"c":8,"l1":"1 53904U 2022-119 26137.66825698 -0.00000879  00000-0 -371330-5 0  9996","l2":"2 53904  53.2184  14.0644 0001387  94.5361 265.5790 15.08829951202109","nm":"STARLINK-4787"},{"n":53905,"c":8,"l1":"1 53905U 2022-119 26137.65821161 -0.00000051  00000-0  148870-5 0  9999","l2":"2 53905  53.2183   4.7303 0001189  94.9255 265.1873 15.08832646202230","nm":"STARLINK-5003"},{"n":53906,"c":8,"l1":"1 53906U 2022-119 26137.67655059  0.00000360  00000-0  407010-5 0  9999","l2":"2 53906  53.2153   4.1443 0001685  93.6199 266.4986 15.08841424202245","nm":"STARLINK-5054"},{"n":53908,"c":8,"l1":"1 53908U 2022-119 26137.65083751 -0.00000156  00000-0  827390-6 0  9995","l2":"2 53908  53.2185   4.6834 0001740  92.1880 267.9312 15.08839180202238","nm":"STARLINK-5057"},{"n":53909,"c":8,"l1":"1 53909U 2022-119 26137.66190122 -0.00001284  00000-0 -626020-5 0  9998","l2":"2 53909  53.2195   4.7511 0001407  83.0587 277.0565 15.08832081202231","nm":"STARLINK-4796"},{"n":53911,"c":8,"l1":"1 53911U 2022-119 26137.65452255  0.00000603  00000-0  559810-5 0  9992","l2":"2 53911  53.2208   4.7047 0001761 101.6966 258.4224 15.08841802202230","nm":"STARLINK-5048"},{"n":53912,"c":8,"l1":"1 53912U 2022-119 26137.33798183 -0.00000808  00000-0 -326968-5 0  9996","l2":"2 53912  53.2184   5.5882 0001399  89.0317 271.0836 15.08833091202192","nm":"STARLINK-5059"},{"n":53913,"c":8,"l1":"1 53913U 2022-119 26137.37113441 -0.00000371  00000-0 -519710-6 0  9994","l2":"2 53913  53.2172   5.7798 0001455  85.5954 274.5204 15.08840672202199","nm":"STARLINK-5053"},{"n":53914,"c":8,"l1":"1 53914U 2022-119 26137.63241605 -0.00000664  00000-0 -236160-5 0  9997","l2":"2 53914  53.2159   4.5723 0001519  90.9129 269.2037 15.08835844202230","nm":"STARLINK-5040"},{"n":53915,"c":8,"l1":"1 53915U 2022-119 26137.83335647  0.00694400  00000-0  302840-3 0  9992","l2":"2 53915  53.2172 347.4130 0000327  46.8304 316.6901 15.82378847  5952","nm":"STARLINK-5017"},{"n":53916,"c":8,"l1":"1 53916U 2022-119 26137.86238147 -0.00000779  00000-0 -308900-5 0  9990","l2":"2 53916  53.2185 343.2455 0001409  88.5098 271.6056 15.08833850202561","nm":"STARLINK-5051"},{"n":53917,"c":8,"l1":"1 53917U 2022-119 26137.83335647  0.00064273  00000-0  153120-3 0  9998","l2":"2 53917  53.2177 358.4780 0001761  75.0203  93.5568 15.41017090  5716","nm":"STARLINK-5036"},{"n":53918,"c":8,"l1":"1 53918U 2022-119 26137.89369376 -0.00000468  00000-0 -112980-5 0  9990","l2":"2 53918  53.2162   3.3563 0001666  89.3176 270.8007 15.08834884202276","nm":"STARLINK-5012"},{"n":53919,"c":8,"l1":"1 53919U 2022-119 26137.60289301 -0.00000345  00000-0 -204820-6 0  9999","l2":"2 53919  53.2134   3.7011 0002242  72.8220 287.3020 15.14833058202240","nm":"STARLINK-5023"},{"n":53920,"c":8,"l1":"1 53920U 2022-119 26136.91578623 -0.00001597  00000-0 -822560-5 0  9998","l2":"2 53920  53.2197   7.9063 0001483 109.7612 250.3540 15.08856702202123","nm":"STARLINK-5025"},{"n":53922,"c":8,"l1":"1 53922U 2022-119 26137.87893726  0.00005238  00000-0  346880-4 0  9999","l2":"2 53922  53.2179   3.2680 0001027  62.3535 297.7561 15.08849891202276","nm":"STARLINK-5002"},{"n":53923,"c":8,"l1":"1 53923U 2022-119 26137.88632490 -0.00000113  00000-0  109870-5 0  9995","l2":"2 53923  53.2184   3.3116 0001499  91.7085 268.4078 15.08836562202276","nm":"STARLINK-5004"},{"n":53924,"c":8,"l1":"1 53924U 2022-119 26137.83335647  0.00011463  00000-0  523950-4 0  9992","l2":"2 53924  53.2163 357.4568 0001548 133.8155 154.2196 15.21015816  5842","nm":"STARLINK-5001"},{"n":53925,"c":8,"l1":"1 53925U 2022-119 26137.33429851 -0.00000830  00000-0 -340755-5 0  9998","l2":"2 53925  53.2180   5.5644 0001316  93.0356 267.0787 15.08836086202192","nm":"STARLINK-5011"},{"n":53926,"c":8,"l1":"1 53926U 2022-119 26137.83335647  0.00061386  00000-0  153550-3 0  9997","l2":"2 53926  53.2168 352.9611 0001330  66.4427  14.3484 15.39557219  5887","nm":"STARLINK-5014"},{"n":53928,"c":8,"l1":"1 53928U 2022-119 26137.89093609  0.00002774  00000-0  192450-4 0  9993","l2":"2 53928  53.2180 353.3619 0001339  81.0411 279.0733 15.08816411202414","nm":"STARLINK-5009"},{"n":53929,"c":8,"l1":"1 53929U 2022-119 26137.60767146 -0.00001299  00000-0 -635690-5 0  9999","l2":"2 53929  53.2190   5.1118 0001429  89.5823 270.5333 15.08835923202222","nm":"STARLINK-5018"},{"n":53930,"c":8,"l1":"1 53930U 2022-119 26137.83335647  0.00132639  00000-0  187970-3 0  9995","l2":"2 53930  53.2164 342.0807 0000823  62.0582 137.8210 15.55553253  5920","nm":"STARLINK-5010"},{"n":53932,"c":8,"l1":"1 53932U 2022-119 26137.84173759 -0.00000753  00000-0 -292150-5 0  9994","l2":"2 53932  53.2187 348.7762 0001478  90.0325 270.0836 15.08832729202483","nm":"STARLINK-4772"},{"n":53933,"c":8,"l1":"1 53933U 2022-119 26137.88721529  0.00019238  00000-0  122760-3 0  9996","l2":"2 53933  53.2142 353.3368 0001382  76.9214 283.1932 15.08718587202413","nm":"STARLINK-4782"},{"n":53934,"c":8,"l1":"1 53934U 2022-119 26137.83805200  0.00001386  00000-0  105110-4 0  9997","l2":"2 53934  53.2203 348.7503 0001463  96.7565 263.3594 15.08844830202493","nm":"STARLINK-4775"}]}